FLOCK 4Q-7              
1 58318U 23174BQ  26062.80508473  .00043284  00000+0  80483-3 0  9999
2 58318  97.3945 151.2434 0008135 157.6022 202.5585 15.48735963129408
FLOCK 4Q-15             
1 58319U 23174BR  26062.81019291  .00148429  00000+0  19017-2 0  9997
2 58319  97.3920 153.4585 0005126 168.9887 191.1482 15.58658935129553
FLOCK 4Q-2              
1 58320U 23174BS  26062.97618650  .00037360  00000+0  80009-3 0  9991
2 58320  97.3877 149.2882 0007981 156.4265 203.7351 15.44653165129338
FLOCK 4Q-9              
1 58322U 23174BU  26062.79948629  .00033692  00000+0  73094-3 0  9995
2 58322  97.3913 149.1523 0008084 157.7991 202.3609 15.44290393129293
FLOCK 4Q-4              
1 58327U 23174BZ  26062.79960975  .00031087  00000+0  68321-3 0  9991
2 58327  97.3872 148.5320 0007463 175.2223 184.9098 15.43928190129270
FLOCK 4Q-13             
1 58328U 23174CA  26062.77941914  .00038363  00000+0  77002-3 0  9992
2 58328  97.4031 150.8943 0007498 170.0863 190.0536 15.46554658129358
FLOCK 4Q-21             
1 58329U 23174CB  26062.79180919  .00065431  00000+0  91146-3 0  9996
2 58329  97.3944 153.9029 0005779 175.8867 184.2436 15.56707300129570
FLOCK 4BE-18            
1 60480U 24149N   26062.75739265  .00025946  00000+0  69512-3 0  9999
2 60480  97.3788 145.6543 0003025 268.0863  92.0035 15.37982333 86088
FLOCK 4BE-7             
1 60481U 24149P   26062.82931968  .00020933  00000+0  59796-3 0  9996
2 60481  97.3820 145.3291 0002003 260.1256  99.9761 15.36031214 86058
FLOCK 4BE-26            
1 60484U 24149S   26062.79222218  .00117590  00000+0  26355-2 0  9996
2 60484  97.3773 145.5649 0005867 257.7815 102.2776 15.42963342 86081
FLOCK 4BE-36            
1 60486U 24149U   26062.78980838  .00029060  00000+0  75661-3 0  9995
2 60486  97.3798 146.2243 0002760 280.7476  79.3458 15.38842053 86122
FLOCK 4BE-25            
1 60487U 24149V   26062.77702445  .00021296  00000+0  61345-3 0  9998
2 60487  97.3855 145.4256 0001211 245.3776 114.7342 15.35765645 86047
FLOCK 4BE-31            
1 60488U 24149W   26062.76177986  .00030886  00000+0  78383-3 0  9999
2 60488  97.3852 146.8074 0001690 275.0133  85.0920 15.39617093 86135
FLOCK 4BE-20            
1 60489U 24149X   26062.75245674  .00018555  00000+0  54728-3 0  9995
2 60489  97.3761 144.5439 0002409 272.9939  87.1029 15.35048978 86021
FLOCK 4BE-23            
1 60490U 24149Y   26062.78297125  .00019060  00000+0  56849-3 0  9996
2 60490  97.3840 144.8931 0002066 286.6187  73.4829 15.34690181 86010
FLOCK 4BE-15            
1 60491U 24149Z   26062.79653339  .00100022  00000+0  25383-2 0  9998
2 60491  97.3776 145.9209 0002894 330.3233  29.7849 15.39283489 86118
