[{"OBJECT_NAME":"FLOCK 4Q-7","OBJECT_ID":"2023-174BQ","EPOCH":"2026-03-03T19:19:19.320672","MEAN_MOTION":15.48735963,"ECCENTRICITY":0.00081354,"INCLINATION":97.3945,"RA_OF_ASC_NODE":151.2434,"ARG_OF_PERICENTER":157.6022,"MEAN_ANOMALY":202.5585,"EPHEMERIS_TYPE":0,"CLASSIFICATION_TYPE":"U","NORAD_CAT_ID":58318,"ELEMENT_SET_NO":999,"REV_AT_EPOCH":12940,"BSTAR":0.0008048334,"MEAN_MOTION_DOT":0.00043284,"MEAN_MOTION_DDOT":0},{"OBJECT_NAME":"FLOCK 4Q-15","OBJECT_ID":"2023-174BR","EPOCH":"2026-03-03T19:26:40.667424","MEAN_MOTION":15.58658935,"ECCENTRICITY":0.00051266,"INCLINATION":97.392,"RA_OF_ASC_NODE":153.4585,"ARG_OF_PERICENTER":168.9887,"MEAN_ANOMALY":191.1482,"EPHEMERIS_TYPE":0,"CLASSIFICATION_TYPE":"U","NORAD_CAT_ID":58319,"ELEMENT_SET_NO":999,"REV_AT_EPOCH":12955,"BSTAR":0.0019017244,"MEAN_MOTION_DOT":0.00148429,"MEAN_MOTION_DDOT":0},{"OBJECT_NAME":"FLOCK 4Q-2","OBJECT_ID":"2023-174BS","EPOCH":"2026-03-03T23:25:42.513600","MEAN_MOTION":15.44653165,"ECCENTRICITY":0.00079815,"INCLINATION":97.3877,"RA_OF_ASC_NODE":149.2882,"ARG_OF_PERICENTER":156.4265,"MEAN_ANOMALY":203.7351,"EPHEMERIS_TYPE":0,"CLASSIFICATION_TYPE":"U","NORAD_CAT_ID":58320,"ELEMENT_SET_NO":999,"REV_AT_EPOCH":12933,"BSTAR":0.00080009197,"MEAN_MOTION_DOT":0.0003736,"MEAN_MOTION_DDOT":0},{"OBJECT_NAME":"FLOCK 4Q-9","OBJECT_ID":"2023-174BU","EPOCH":"2026-03-03T19:11:15.615456","MEAN_MOTION":15.44290393,"ECCENTRICITY":0.00080847,"INCLINATION":97.3913,"RA_OF_ASC_NODE":149.1523,"ARG_OF_PERICENTER":157.7991,"MEAN_ANOMALY":202.3609,"EPHEMERIS_TYPE":0,"CLASSIFICATION_TYPE":"U","NORAD_CAT_ID":58322,"ELEMENT_SET_NO":999,"REV_AT_EPOCH":12929,"BSTAR":0.00073094256,"MEAN_MOTION_DOT":0.00033692,"MEAN_MOTION_DDOT":0},{"OBJECT_NAME":"FLOCK 4Q-4","OBJECT_ID":"2023-174BZ","EPOCH":"2026-03-03T19:11:26.282400","MEAN_MOTION":15.4392819,"ECCENTRICITY":0.00074639,"INCLINATION":97.3872,"RA_OF_ASC_NODE":148.532,"ARG_OF_PERICENTER":175.2223,"MEAN_ANOMALY":184.9098,"EPHEMERIS_TYPE":0,"CLASSIFICATION_TYPE":"U","NORAD_CAT_ID":58327,"ELEMENT_SET_NO":999,"REV_AT_EPOCH":12927,"BSTAR":0.00068321498,"MEAN_MOTION_DOT":0.00031087,"MEAN_MOTION_DDOT":0},{"OBJECT_NAME":"FLOCK 4Q-13","OBJECT_ID":"2023-174CA","EPOCH":"2026-03-03T18:42:21.813696","MEAN_MOTION":15.46554658,"ECCENTRICITY":0.00074989,"INCLINATION":97.4031,"RA_OF_ASC_NODE":150.8943,"ARG_OF_PERICENTER":170.0863,"MEAN_ANOMALY":190.0536,"EPHEMERIS_TYPE":0,"CLASSIFICATION_TYPE":"U","NORAD_CAT_ID":58328,"ELEMENT_SET_NO":999,"REV_AT_EPOCH":12935,"BSTAR":0.00077001697,"MEAN_MOTION_DOT":0.00038363,"MEAN_MOTION_DDOT":0},{"OBJECT_NAME":"FLOCK 4Q-21","OBJECT_ID":"2023-174CB","EPOCH":"2026-03-03T19:00:12.314016","MEAN_MOTION":15.567073,"ECCENTRICITY":0.0005779,"INCLINATION":97.3944,"RA_OF_ASC_NODE":153.9029,"ARG_OF_PERICENTER":175.8867,"MEAN_ANOMALY":184.2436,"EPHEMERIS_TYPE":0,"CLASSIFICATION_TYPE":"U","NORAD_CAT_ID":58329,"ELEMENT_SET_NO":999,"REV_AT_EPOCH":12957,"BSTAR":0.00091145561,"MEAN_MOTION_DOT":0.00065431,"MEAN_MOTION_DDOT":0},{"OBJECT_NAME":"FLOCK 4BE-18","OBJECT_ID":"2024-149N","EPOCH":"2026-03-03T18:10:38.724960","MEAN_MOTION":15.37982333,"ECCENTRICITY":0.00030258,"INCLINATION":97.3788,"RA_OF_ASC_NODE":145.6543,"ARG_OF_PERICENTER":268.0863,"MEAN_ANOMALY":92.0035,"EPHEMERIS_TYPE":0,"CLASSIFICATION_TYPE":"U","NORAD_CAT_ID":60480,"ELEMENT_SET_NO":999,"REV_AT_EPOCH":8608,"BSTAR":0.00069512168,"MEAN_MOTION_DOT":0.00025946,"MEAN_MOTION_DDOT":0},{"OBJECT_NAME":"FLOCK 4BE-7","OBJECT_ID":"2024-149P","EPOCH":"2026-03-03T19:54:13.220352","MEAN_MOTION":15.36031214,"ECCENTRICITY":0.00020036,"INCLINATION":97.382,"RA_OF_ASC_NODE":145.3291,"ARG_OF_PERICENTER":260.1256,"MEAN_ANOMALY":99.9761,"EPHEMERIS_TYPE":0,"CLASSIFICATION_TYPE":"U","NORAD_CAT_ID":60481,"ELEMENT_SET_NO":999,"REV_AT_EPOCH":8605,"BSTAR":0.00059796299,"MEAN_MOTION_DOT":0.00020933,"MEAN_MOTION_DDOT":0},{"OBJECT_NAME":"FLOCK 4BE-26","OBJECT_ID":"2024-149S","EPOCH":"2026-03-03T19:00:47.996352","MEAN_MOTION":15.42963342,"ECCENTRICITY":0.00058672,"INCLINATION":97.3773,"RA_OF_ASC_NODE":145.5649,"ARG_OF_PERICENTER":257.7815,"MEAN_ANOMALY":102.2776,"EPHEMERIS_TYPE":0,"CLASSIFICATION_TYPE":"U","NORAD_CAT_ID":60484,"ELEMENT_SET_NO":999,"REV_AT_EPOCH":8608,"BSTAR":0.002635463,"MEAN_MOTION_DOT":0.0011759,"MEAN_MOTION_DDOT":0},{"OBJECT_NAME":"FLOCK 4BE-36","OBJECT_ID":"2024-149U","EPOCH":"2026-03-03T18:57:19.444032","MEAN_MOTION":15.38842053,"ECCENTRICITY":0.00027608,"INCLINATION":97.3798,"RA_OF_ASC_NODE":146.2243,"ARG_OF_PERICENTER":280.7476,"MEAN_ANOMALY":79.3458,"EPHEMERIS_TYPE":0,"CLASSIFICATION_TYPE":"U","NORAD_CAT_ID":60486,"ELEMENT_SET_NO":999,"REV_AT_EPOCH":8612,"BSTAR":0.00075661319,"MEAN_MOTION_DOT":0.0002906,"MEAN_MOTION_DDOT":0},{"OBJECT_NAME":"FLOCK 4BE-25","OBJECT_ID":"2024-149V","EPOCH":"2026-03-03T18:38:54.912480","MEAN_MOTION":15.35765645,"ECCENTRICITY":0.00012116,"INCLINATION":97.3855,"RA_OF_ASC_NODE":145.4256,"ARG_OF_PERICENTER":245.3776,"MEAN_ANOMALY":114.7342,"EPHEMERIS_TYPE":0,"CLASSIFICATION_TYPE":"U","NORAD_CAT_ID":60487,"ELEMENT_SET_NO":999,"REV_AT_EPOCH":8604,"BSTAR":0.00061345418,"MEAN_MOTION_DOT":0.00021296,"MEAN_MOTION_DDOT":0},{"OBJECT_NAME":"FLOCK 4BE-31","OBJECT_ID":"2024-149W","EPOCH":"2026-03-03T18:16:57.779904","MEAN_MOTION":15.39617093,"ECCENTRICITY":0.00016905,"INCLINATION":97.3852,"RA_OF_ASC_NODE":146.8074,"ARG_OF_PERICENTER":275.0133,"MEAN_ANOMALY":85.092,"EPHEMERIS_TYPE":0,"CLASSIFICATION_TYPE":"U","NORAD_CAT_ID":60488,"ELEMENT_SET_NO":999,"REV_AT_EPOCH":8613,"BSTAR":0.00078383167,"MEAN_MOTION_DOT":0.00030886,"MEAN_MOTION_DDOT":0},{"OBJECT_NAME":"FLOCK 4BE-20","OBJECT_ID":"2024-149X","EPOCH":"2026-03-03T18:03:32.262336","MEAN_MOTION":15.35048978,"ECCENTRICITY":0.00024092,"INCLINATION":97.3761,"RA_OF_ASC_NODE":144.5439,"ARG_OF_PERICENTER":272.9939,"MEAN_ANOMALY":87.1029,"EPHEMERIS_TYPE":0,"CLASSIFICATION_TYPE":"U","NORAD_CAT_ID":60489,"ELEMENT_SET_NO":999,"REV_AT_EPOCH":8602,"BSTAR":0.00054727806,"MEAN_MOTION_DOT":0.00018555,"MEAN_MOTION_DDOT":0},{"OBJECT_NAME":"FLOCK 4BE-23","OBJECT_ID":"2024-149Y","EPOCH":"2026-03-03T18:47:28.716000","MEAN_MOTION":15.34690181,"ECCENTRICITY":0.00020664,"INCLINATION":97.384,"RA_OF_ASC_NODE":144.8931,"ARG_OF_PERICENTER":286.6187,"MEAN_ANOMALY":73.4829,"EPHEMERIS_TYPE":0,"CLASSIFICATION_TYPE":"U","NORAD_CAT_ID":60490,"ELEMENT_SET_NO":999,"REV_AT_EPOCH":8601,"BSTAR":0.00056848688,"MEAN_MOTION_DOT":0.0001906,"MEAN_MOTION_DDOT":0},{"OBJECT_NAME":"FLOCK 4BE-15","OBJECT_ID":"2024-149Z","EPOCH":"2026-03-03T19:07:00.484896","MEAN_MOTION":15.39283489,"ECCENTRICITY":0.0002894,"INCLINATION":97.3776,"RA_OF_ASC_NODE":145.9209,"ARG_OF_PERICENTER":330.3233,"MEAN_ANOMALY":29.7849,"EPHEMERIS_TYPE":0,"CLASSIFICATION_TYPE":"U","NORAD_CAT_ID":60491,"ELEMENT_SET_NO":999,"REV_AT_EPOCH":8611,"BSTAR":0.0025382965,"MEAN_MOTION_DOT":0.00100022,"MEAN_MOTION_DDOT":0}]
